CELTEE 1                
1 41850U 16067C   18137.20736697  .00000151  00000-0  18467-4 0  9995
2 41850  97.9241 225.0080 0007167 267.3893  92.6507 14.96805023 82465
OPTICUBE 04             
1 41851U 16067D   18137.23649363  .00000109  00000-0  14842-4 0  9998
2 41851  97.9225 224.9603 0007648 267.3136  92.7210 14.96657141 82469
AEROCUBE 8D             
1 41852U 16067E   18137.20277808  .00000460  00000-0  45819-4 0  9995
2 41852  97.9249 224.7734 0008007 268.0678  91.9626 14.96480554 82440
AEROCUBE 8C             
1 41853U 16067F   18136.88184356 -.00000199  00000-0 -12159-4 0  9996
2 41853  97.9247 224.4137 0008602 271.3297  88.6938 14.96442823 82398
PROMETHEUS 2-1          
1 41854U 16067G   18137.22470990  .00000048  00000-0  95752-5 0  9990
2 41854  97.9248 224.7624 0009090 268.8869  91.1311 14.96535004 82446
PROMETHEUS 2-3          
1 41855U 16067H   18137.22728789  .00000123  00000-0  16154-4 0  9995
2 41855  97.9249 224.7686 0009291 269.0588  90.9568 14.96531739 82442
ITF-2                   
1 41932U 98067KU  18136.90462169  .00026983  00000-0  18538-3 0  9991
2 41932  51.6338 141.8265 0005358  63.5031 296.6517 15.74457966 75836
WASEDA-SAT3             
1 41933U 98067KV  18137.18991896  .00048412  00000-0  25859-3 0  9992
2 41933  51.6333 134.5968 0005295  61.2657 298.8876 15.79853268 75955
AOBA-VELOX 3            
1 41935U 98067KX  18137.18305013  .00039716  00000-0  23404-3 0  9995
2 41935  51.6351 136.8809 0005417  64.7851 295.3711 15.77757756 76028
INS-1B                  
1 41954U 17008G   18137.37445535  .00001605  00000-0  71356-4 0  9993
2 41954  97.4482 201.5956 0011193 100.5937 259.6561 15.22928405 69318
BGUSAT                  
1 41999U 17008BD  18136.91953728  .00002441  00000-0  10224-3 0  9994
2 41999  97.4523 202.1092 0010258 117.1895 243.0389 15.24461491 68660
DIDO-2                  
1 42000U 17008BE  18136.92599868  .00001193  00000-0  53482-4 0  9997
2 42000  97.4501 201.5659 0010228 117.5226 242.7051 15.23133499 68644
PEASSS                  
1 42015U 17008BV  18136.92091444  .00001420  00000-0  61698-4 0  9991
2 42015  97.4497 201.9805 0008046 122.4630 237.7386 15.23933376 69154
AL-FARABI 1             
1 42016U 17008BW  18136.92182813  .00001787  00000-0  75956-4 0  9991
2 42016  97.4504 202.1565 0007952 122.7203 237.4801 15.24327047 69280
NAYIF-1 (EO-88)         
1 42017U 17008BX  18136.91656875  .00001779  00000-0  75605-4 0  9997
2 42017  97.4503 202.1575 0007923 122.9228 237.2772 15.24350078 69306
HAVELSAT                
1 42700U 98067LH  18137.28523047  .00027900  00000-0  23483-3 0  9995
2 42700  51.6341 152.6286 0003933 100.9517 259.1923 15.69619288 57161
CXBN-2                  
1 42704U 98067LM  18137.29806524  .00026050  00000-0  22330-3 0  9999
2 42704  51.6344 153.4784 0003641  45.3271 314.8023 15.69217502 57078
ICECUBE                 
1 42705U 98067LN  18137.22396636  .00038364  00000-0  24134-3 0  9996
2 42705  51.6429 147.7965 0004423  62.9085 297.2366 15.76300697 57202
PHOENIX                 
1 42706U 98067LP  18137.27158334  .00018799  00000-0  17088-3 0  9993
2 42706  51.6341 154.0447 0002578  47.8564 312.2651 15.68008259 57053
X-CUBESAT               
1 42707U 98067LQ  18137.40275583  .00030102  00000-0  24817-3 0  9995
2 42707  51.6310 151.8585 0003095  45.0770 315.0478 15.70080493 57086
QBEE50-LTU-OC           
1 42708U 98067LR  18137.39731330  .00027398  00000-0  23362-3 0  9998
2 42708  51.6346 152.6184 0002935  46.3827 313.7413 15.69317684 57031
ALTAIR PATHFINDER       
1 42711U 98067LS  18137.33077952  .00012841  00000-0  14083-3 0  9996
2 42711  51.6345 159.6993 0004756  57.2158 302.9294 15.63620676 56645
SHARC                   
1 42712U 98067LT  18136.49572093  .00016079  00000-0  17905-3 0  9992
2 42712  51.6365 165.4238 0003705  51.6706 308.4621 15.63009289 56731
ZA-AEROSAT              
1 42713U 98067LU  18137.27484178  .00017156  00000-0  16460-3 0  9998
2 42713  51.6332 156.3059 0003606  44.1837 315.9447 15.66738569 56684
LINK                    
1 42714U 98067LV  18137.17755427  .00055343  00000-0  34000-3 0  9996
2 42714  51.6253 148.0266 0005236  38.1307 322.0062 15.76670938 56892
CSUNSAT 1               
1 42715U 98067LW  18137.30486180  .00019435  00000-0  18209-3 0  9994
2 42715  51.6342 155.7749 0005182  47.7552 312.3883 15.67222615 56697
SPACECUBE               
1 42717U 98067LY  18137.29530356  .00026421  00000-0  22583-3 0  9992
2 42717  51.6321 153.4233 0002984  88.0399 272.0940 15.69280704 56098
HOOPOE                  
1 42718U 98067LZ  18137.31188429  .00033889  00000-0  26312-3 0  9996
2 42718  51.6335 151.2877 0003269  77.4520 282.6844 15.71457904 56124
CHALLENGER              
1 42721U 98067MA  18137.38276402  .00090452  00000-0  44341-3 0  9997
2 42721  51.6271 143.3765 0006089  69.2843 290.8811 15.81466855 55934
NJUST-1                 
1 42722U 98067MB  18137.31762267  .00017248  00000-0  17119-3 0  9995
2 42722  51.6343 157.3594 0005638  98.8242 261.3392 15.65874250 55740
UNSW-ECO                
1 42723U 98067MC  18137.26138259  .00036201  00000-0  27425-3 0  9999
2 42723  51.6352 151.7267 0005202  82.3040 277.8549 15.71999894 55797
LILACSAT-1              
1 42725U 98067ME  18137.40508625  .00025630  00000-0  23074-3 0  9995
2 42725  51.6342 154.9385 0004714  92.2539 267.8997 15.68021445 55682
NSIGHT-1                
1 42726U 98067MF  18137.33472794  .00007116  00000-0  88812-4 0  9996
2 42726  51.6372 162.7736 0005550 109.1167 251.0428 15.61088105 55589
SNUSAT-1                
1 42727U 98067MG  18137.28749798  .00023860  00000-0  21599-3 0  9994
2 42727  51.6324 155.6070 0007186  67.4296 292.7461 15.67914931 55631
I-INSPIRE II            
1 42731U 98067ML  18137.07484914  .00029763  00000-0  22174-3 0  9990
2 42731  51.6322 151.9155 0007079  53.6253 306.5398 15.72486708 55554
POLYITAN-2-SAU          
1 42732U 98067MM  18137.21315521  .00027070  00000-0  22548-3 0  9998
2 42732  51.6334 153.6194 0007002  54.7768 305.3883 15.69871608 55547
SNUSAT-1B               
1 42733U 98067MN  18137.27205433  .00025957  00000-0  22873-3 0  9998
2 42733  51.6337 154.7771 0006969  57.5038 302.6631 15.68525545 55531
EXALTA-1                
1 42734U 98067MP  18137.25882292  .00038797  00000-0  28137-3 0  9996
2 42734  51.6300 150.8744 0007172  71.3616 288.8161 15.72981235 55532
BEEAGLESAT              
1 42736U 98067MR  18137.05309496  .00019021  00000-0  17706-3 0  9995
2 42736  51.6334 157.0630 0005903  93.8049 266.3622 15.67396412 55548
UCLSAT                  
1 42765U 17036A   18137.10781757  .00001401  00000-0  64769-4 0  9999
2 42765  97.4033 197.4543 0011917 177.3599 182.7702 15.21773561 49980
LITUANICASAT-2          
1 42768U 17036D   18137.22064100  .00002465  00000-0  11314-3 0  9999
2 42768  97.4043 197.1827 0016290 168.8434 191.3166 15.21245271 49856
AALTO-1                 
1 42775U 17036L   18136.90956155  .00000973  00000-0  47324-4 0  9994
2 42775  97.4028 196.8017 0014590 167.5436 192.6163 15.20695691 49746
URSA MAIOR              
1 42776U 17036M   18137.22667736  .00001053  00000-0  50830-4 0  9991
2 42776  97.4034 197.1580 0014492 166.6159 193.5464 15.20770148 49796
COMPASS 2               
1 42777U 17036N   18137.10508602  .00001949  00000-0  89193-4 0  9993
2 42777  97.4054 197.3755 0013378 169.7665 190.3846 15.21628785 49781
DIAMOND RED             
1 42783U 17036U   18136.83576311  .00001185  00000-0  55838-4 0  9992
2 42783  97.4036 197.0610 0012486 178.6380 181.4892 15.21391446 49746
PEGASUS                 
1 42784U 17036V   18136.74682934  .00001343  00000-0  62504-4 0  9996
2 42784  97.4037 197.0327 0012393 179.0030 181.1233 15.21585053 49731
DIAMOND GREEN           
1 42785U 17036W   18136.83470419  .00001187  00000-0  55944-4 0  9996
2 42785  97.4038 197.0721 0012363 179.1635 180.9624 15.21394001 49732
DIAMOND BLUE            
1 42786U 17036X   18136.83383728  .00001182  00000-0  55711-4 0  9990
2 42786  97.4037 197.0714 0012199 179.3182 180.8072 15.21394070 49732
NUDTSAT                 
1 42787U 17036Y   18137.39979860  .00002110  00000-0  94990-4 0  9995
2 42787  97.4044 197.8477 0012071 176.1579 183.9752 15.22130060 49680
SUCHAI                  
1 42788U 17036Z   18136.84099864  .00001592  00000-0  72994-4 0  9995
2 42788  97.4038 197.2108 0012050 178.3756 181.7522 15.21840804 49827
SKCUBE                  
1 42789U 17036AA  18136.83970570  .00001458  00000-0  67193-4 0  9993
2 42789  97.4036 197.2067 0011862 178.2422 181.8858 15.21809170 49744
VZLUSAT-1               
1 42790U 17036AB  18136.92937188  .00001932  00000-0  87171-4 0  9998
2 42790  97.4040 197.3924 0011573 177.8202 182.3087 15.22150636 49763
ROBUSTA-1B              
1 42792U 17036AD  18136.87700890  .00001512  00000-0  69293-4 0  9991
2 42792  97.4034 197.2997 0011425 178.7803 181.3463 15.21948443 49767
CICERO 6                
1 42793U 17036AE  18137.13130802  .00000915  00000-0  43284-4 0  9990
2 42793  97.4028 197.5558 0010544 178.3484 181.7789 15.21818914 49875
D-SAT                   
1 42794U 17036AF  18136.90164208  .00000391  00000-0  39454-4 0  9994
2 42794  97.5943 192.7347 0127742  27.0268 333.7526 14.90853366 49069
TOKI                    
1 42820U 98067MU  18136.53183215  .00016842  00000-0  16324-3 0  9993
2 42820  51.6333 161.8393 0004364  36.3855 323.7437 15.66497344 48917
MAZAALAI (NUMSAT-1)     
1 42822U 98067MW  18137.19808219  .00019694  00000-0  19162-3 0  9997
2 42822  51.6335 158.7931 0004317  42.1222 318.0105 15.66273890 48978
BRAC ONNESHA            
1 42823U 98067MX  18136.49398670  .00016417  00000-0  16032-3 0  9998
2 42823  51.6343 162.3567 0006331  58.6689 301.4926 15.66322456 48869
NIGERIAEDUSAT-1         
1 42824U 98067MY  18136.51434149  .00015358  00000-0  15140-3 0  9996
2 42824  51.6346 162.5069 0006209  59.1215 301.0390 15.66146133 48853
